{
  "type": "FeatureCollection",
  "features": [
    {
      "type": "Feature",
      "properties": {
        "norad_id": 45344,
        "name": "BEIDOU-3 G2 (C60)",
        "group": "gnss",
        "lat": 2.341363728529165,
        "lon": 112.60508942736104,
        "alt_km": 35803.34363300295,
        "timestamp": "2025-12-12T20:43:07.279100+00:00",
        "meta_object_name": "BEIDOU-3 G2 (C60)",
        "meta_object_id": "2020-017A",
        "meta_epoch": "2025-12-12T03:35:21.390432",
        "meta_mean_motion": 1.00272955,
        "meta_eccentricity": 0.0004441,
        "meta_inclination": 2.4966,
        "meta_ra_of_asc_node": 43.8382,
        "meta_arg_of_pericenter": 266.1378,
        "meta_mean_anomaly": 264.9892,
        "meta_ephemeris_type": 0,
        "meta_classification_type": "U",
        "meta_norad_cat_id": 45344,
        "meta_element_set_no": 999,
        "meta_rev_at_epoch": 2138,
        "meta_bstar": 0,
        "meta_mean_motion_dot": -1.32e-06,
        "meta_mean_motion_ddot": 0,
        "tle_line1": "1 45344U 20017A   25346.14955313 -.00000132  00000+0  00000+0 0  9996",
        "tle_line2": "2 45344   2.4966  43.8382 0004441 266.1378 264.9892  1.00272955 21388"
      },
      "geometry": {
        "type": "Point",
        "coordinates": [
          112.60508942736104,
          2.341363728529165
        ]
      }
    },
    {
      "type": "Feature",
      "properties": {
        "norad_id": 45358,
        "name": "COSMOS 2545 (760)",
        "group": "gnss",
        "lat": -43.62950409321449,
        "lon": -68.14089092602242,
        "alt_km": 19120.60348003068,
        "timestamp": "2025-12-12T20:43:07.279112+00:00",
        "meta_object_name": "COSMOS 2545 (760)",
        "meta_object_id": "2020-018A",
        "meta_epoch": "2025-12-10T13:58:04.872576",
        "meta_mean_motion": 2.13102273,
        "meta_eccentricity": 0.00118432,
        "meta_inclination": 64.471,
        "meta_ra_of_asc_node": 319.0455,
        "meta_arg_of_pericenter": 248.8319,
        "meta_mean_anomaly": 111.0396,
        "meta_ephemeris_type": 0,
        "meta_classification_type": "U",
        "meta_norad_cat_id": 45358,
        "meta_element_set_no": 999,
        "meta_rev_at_epoch": 4464,
        "meta_bstar": 0,
        "meta_mean_motion_dot": -5.2e-07,
        "meta_mean_motion_ddot": 0,
        "tle_line1": "1 45358U 20018A   25344.58200084 -.00000052  00000+0  00000+0 0  9997",
        "tle_line2": "2 45358  64.4710 319.0455 0011843 248.8319 111.0396  2.13102273 44648"
      },
      "geometry": {
        "type": "Point",
        "coordinates": [
          -68.14089092602242,
          -43.62950409321449
        ]
      }
    },
    {
      "type": "Feature",
      "properties": {
        "norad_id": 45807,
        "name": "BEIDOU-3 G3 (C61)",
        "group": "gnss",
        "lat": 1.9424737514032238,
        "lon": 143.18185153805754,
        "alt_km": 35801.62925765253,
        "timestamp": "2025-12-12T20:43:07.279124+00:00",
        "meta_object_name": "BEIDOU-3 G3 (C61)",
        "meta_object_id": "2020-040A",
        "meta_epoch": "2025-12-08T17:33:17.532288",
        "meta_mean_motion": 1.00275813,
        "meta_eccentricity": 0.00060306,
        "meta_inclination": 1.9816,
        "meta_ra_of_asc_node": 66.5886,
        "meta_arg_of_pericenter": 306.262,
        "meta_mean_anomaly": 78.7159,
        "meta_ephemeris_type": 0,
        "meta_classification_type": "U",
        "meta_norad_cat_id": 45807,
        "meta_element_set_no": 999,
        "meta_rev_at_epoch": 2016,
        "meta_bstar": 0,
        "meta_mean_motion_dot": -3.52e-06,
        "meta_mean_motion_ddot": 0,
        "tle_line1": "1 45807U 20040A   25342.73145292 -.00000352  00000+0  00000+0 0  9998",
        "tle_line2": "2 45807   1.9816  66.5886 0006030 306.2620  78.7159  1.00275813 20161"
      },
      "geometry": {
        "type": "Point",
        "coordinates": [
          143.18185153805754,
          1.9424737514032238
        ]
      }
    },
    {
      "type": "Feature",
      "properties": {
        "norad_id": 45854,
        "name": "GPS BIII-3  (PRN 23)",
        "group": "gnss",
        "lat": 52.97203992612305,
        "lon": 97.32934075051082,
        "alt_km": 20279.789548488014,
        "timestamp": "2025-12-12T20:43:07.279136+00:00",
        "meta_object_name": "GPS BIII-3  (PRN 23)",
        "meta_object_id": "2020-041A",
        "meta_epoch": "2025-12-11T05:23:02.925024",
        "meta_mean_motion": 2.00561914,
        "meta_eccentricity": 0.006046,
        "meta_inclination": 56.5461,
        "meta_ra_of_asc_node": 36.2442,
        "meta_arg_of_pericenter": 203.3747,
        "meta_mean_anomaly": 126.9066,
        "meta_ephemeris_type": 0,
        "meta_classification_type": "U",
        "meta_norad_cat_id": 45854,
        "meta_element_set_no": 999,
        "meta_rev_at_epoch": 4026,
        "meta_bstar": 0,
        "meta_mean_motion_dot": -9.4e-07,
        "meta_mean_motion_ddot": 0,
        "tle_line1": "1 45854U 20041A   25345.22433941 -.00000094  00000+0  00000+0 0  9992",
        "tle_line2": "2 45854  56.5461  36.2442 0060460 203.3747 126.9066  2.00561914 40268"
      },
      "geometry": {
        "type": "Point",
        "coordinates": [
          97.32934075051082,
          52.97203992612305
        ]
      }
    },
    {
      "type": "Feature",
      "properties": {
        "norad_id": 46114,
        "name": "GALAXY 30 (WAAS/PRN 135)",
        "group": "gnss",
        "lat": -0.028973435362515638,
        "lon": -92.41546983747486,
        "alt_km": 35776.318554103054,
        "timestamp": "2025-12-12T20:43:07.279148+00:00",
        "meta_object_name": "GALAXY 30 (WAAS/PRN 135)",
        "meta_object_id": "2020-056C",
        "meta_epoch": "2025-12-12T06:02:16.423008",
        "meta_mean_motion": 1.00272766,
        "meta_eccentricity": 0.00022451,
        "meta_inclination": 0.0132,
        "meta_ra_of_asc_node": 333.7243,
        "meta_arg_of_pericenter": 287.9124,
        "meta_mean_anomaly": 145.1344,
        "meta_ephemeris_type": 0,
        "meta_classification_type": "U",
        "meta_norad_cat_id": 46114,
        "meta_element_set_no": 999,
        "meta_rev_at_epoch": 1941,
        "meta_bstar": 0,
        "meta_mean_motion_dot": 4.6e-07,
        "meta_mean_motion_ddot": 0,
        "tle_line1": "1 46114U 20056C   25346.25157897  .00000046  00000+0  00000+0 0  9991",
        "tle_line2": "2 46114   0.0132 333.7243 0002245 287.9124 145.1344  1.00272766 19413"
      },
      "geometry": {
        "type": "Point",
        "coordinates": [
          -92.41546983747486,
          -0.028973435362515638
        ]
      }
    },
    {
      "type": "Feature",
      "properties": {
        "norad_id": 46805,
        "name": "COSMOS 2547 (705K)",
        "group": "gnss",
        "lat": 12.832992273544404,
        "lon": 12.4806730813211,
        "alt_km": 19121.739602916143,
        "timestamp": "2025-12-12T20:43:07.279161+00:00",
        "meta_object_name": "COSMOS 2547 (705K)",
        "meta_object_id": "2020-075A",
        "meta_epoch": "2025-12-08T21:25:56.196192",
        "meta_mean_motion": 2.13099854,
        "meta_eccentricity": 0.00063847,
        "meta_inclination": 64.5958,
        "meta_ra_of_asc_node": 198.8249,
        "meta_arg_of_pericenter": 229.7163,
        "meta_mean_anomaly": 130.3027,
        "meta_ephemeris_type": 0,
        "meta_classification_type": "U",
        "meta_norad_cat_id": 46805,
        "meta_element_set_no": 999,
        "meta_rev_at_epoch": 3985,
        "meta_bstar": 0,
        "meta_mean_motion_dot": 4.5e-07,
        "meta_mean_motion_ddot": 0,
        "tle_line1": "1 46805U 20075A   25342.89301153  .00000045  00000+0  00000+0 0  9990",
        "tle_line2": "2 46805  64.5958 198.8249 0006384 229.7163 130.3027  2.13099854 39856"
      },
      "geometry": {
        "type": "Point",
        "coordinates": [
          12.4806730813211,
          12.832992273544404
        ]
      }
    },
    {
      "type": "Feature",
      "properties": {
        "norad_id": 46826,
        "name": "GPS BIII-4  (PRN 14)",
        "group": "gnss",
        "lat": 34.41703861314224,
        "lon": -111.82074115614219,
        "alt_km": 20338.14585792419,
        "timestamp": "2025-12-12T20:43:07.279175+00:00",
        "meta_object_name": "GPS BIII-4  (PRN 14)",
        "meta_object_id": "2020-078A",
        "meta_epoch": "2025-12-11T12:08:25.039104",
        "meta_mean_motion": 2.0056681,
        "meta_eccentricity": 0.00646308,
        "meta_inclination": 54.0154,
        "meta_ra_of_asc_node": 218.391,
        "meta_arg_of_pericenter": 203.3565,
        "meta_mean_anomaly": 301.1266,
        "meta_ephemeris_type": 0,
        "meta_classification_type": "U",
        "meta_norad_cat_id": 46826,
        "meta_element_set_no": 999,
        "meta_rev_at_epoch": 3774,
        "meta_bstar": 0,
        "meta_mean_motion_dot": 1e-07,
        "meta_mean_motion_ddot": 0,
        "tle_line1": "1 46826U 20078A   25345.50584536  .00000010  00000+0  00000+0 0  9997",
        "tle_line2": "2 46826  54.0154 218.3910 0064630 203.3565 301.1266  2.00566810 37742"
      },
      "geometry": {
        "type": "Point",
        "coordinates": [
          -111.82074115614219,
          34.41703861314224
        ]
      }
    }
  ]
}